{
    "links": {
        "self": "http://www.neowsapp.com/rest/v1/neo/3092319?api_key=iIulBulltgU6a56xZRHN4H3l9WmuAYTsLGpBGhQ2"
    },
    "id": "3092319",
    "neo_reference_id": "3092319",
    "name": "(2001 RP3)",
    "designation": "2001 RP3",
    "nasa_jpl_url": "http://ssd.jpl.nasa.gov/sbdb.cgi?sstr=3092319",
    "absolute_magnitude_h": 23.4,
    "estimated_diameter": {
        "kilometers": {
            "estimated_diameter_min": 0.0555334912,
            "estimated_diameter_max": 0.1241766613
        },
        "meters": {
            "estimated_diameter_min": 55.5334911581,
            "estimated_diameter_max": 124.1766612574
        },
        "miles": {
            "estimated_diameter_min": 0.0345069009,
            "estimated_diameter_max": 0.0771597762
        },
        "feet": {
            "estimated_diameter_min": 182.1964991311,
            "estimated_diameter_max": 407.4037573197
        }
    },
    "is_potentially_hazardous_asteroid": false,
    "close_approach_data": [
        {
            "close_approach_date": "2001-09-06",
            "close_approach_date_full": "2001-Sep-06 19:01",
            "epoch_date_close_approach": 999802860000,
            "relative_velocity": {
                "kilometers_per_second": "9.2145203438",
                "kilometers_per_hour": "33172.2732375634",
                "miles_per_hour": "20611.9605569738"
            },
            "miss_distance": {
                "astronomical": "0.0513781925",
                "lunar": "19.9861168825",
                "kilometers": "7686068.162449975",
                "miles": "4775901.294660655"
            },
            "orbiting_body": "Earth"
        }
    ],
    "orbital_data": {
        "orbit_id": "14",
        "orbit_determination_date": "2017-04-06 09:16:10",
        "first_observation_date": "2001-09-08",
        "last_observation_date": "2001-10-11",
        "data_arc_in_days": 33,
        "observations_used": 61,
        "orbit_uncertainty": "7",
        "minimum_orbit_intersection": ".0403871",
        "jupiter_tisserand_invariant": "3.319",
        "epoch_osculation": "2459000.5",
        "eccentricity": ".5599205233159493",
        "semi_major_axis": "2.342519568722779",
        "inclination": "9.293092194140243",
        "ascending_node_longitude": "170.5243723050201",
        "orbital_period": "1309.553568028763",
        "perihelion_distance": "1.030894785925669",
        "perihelion_argument": "158.7390703604049",
        "aphelion_distance": "3.654144351519889",
        "perihelion_time": "2458708.439588544197",
        "mean_anomaly": "80.28823767962096",
        "mean_motion": ".2749028438308931",
        "equinox": "J2000",
        "orbit_class": {
            "orbit_class_type": "AMO",
            "orbit_class_description": "Near-Earth asteroid orbits similar to that of 1221 Amor",
            "orbit_class_range": "1.017 AU < q (perihelion) < 1.3 AU"
        }
    },
    "is_sentry_object": false
}